     3.00           N                   E                   RINEX VERSION / TYPE
BRD_USR             ESA                 20190114 031754  UTCPGM / RUN BY / DATE
 GAL   3.7500E+01  1.1719E-01 -6.1035E-04  0.0000E+00       IONOSPHERIC CORR
GAUT  1.8626451492E-09-1.776356839E-15  86400 2036 GSTB   0 TIME SYSTEM CORR
GPGA -4.9476511776E-10-6.217248938E-15  86400 2036 GSTB   0 TIME SYSTEM CORR
                                                            END OF HEADER
E11 2019 01 14 00 50 00 5.719739769120E-03 7.105427357601E-13 0.000000000000E+00
     2.100000000000E+01 9.062500000000E-01 2.894763435659E-09-1.855264574302E+00
     1.471489667892E-07 2.815546467900E-04 7.571652531624E-06 5.440603008270E+03
     8.940000000000E+04 8.381903171539E-08-9.850306343197E-01-3.352761268616E-08
     9.819613473402E-01 1.873750000000E+02-3.405745293362E-01-5.580946754548E-09
     2.210806374674E-10 2.580000000000E+02 2.036000000000E+03 0.000000000000E+00
     3.120000000000E+00 0.000000000000E+00-1.839362084866E-08 0.000000000000E+00
     9.010000000000E+04 0.000000000000E+00 0.000000000000E+00 0.000000000000E+00
E12 2019 01 14 00 50 00 5.936973146163E-03 8.434142273472E-11 0.000000000000E+00
     2.100000000000E+01 3.468750000000E+00 2.800116636097E-09-5.521371162128E-01
     2.272427082062E-07 4.055156605318E-04 8.234754204750E-06 5.440606529236E+03
     8.940000000000E+04 3.166496753693E-08-9.850468858767E-01 2.048909664154E-08
     9.819760467410E-01 1.746875000000E+02-8.400791212160E-01-5.549516873939E-09
     2.592965150264E-10 2.580000000000E+02 2.036000000000E+03 0.000000000000E+00
     3.120000000000E+00 0.000000000000E+00-1.536682248116E-08 0.000000000000E+00
     9.010000000000E+04 0.000000000000E+00 0.000000000000E+00 0.000000000000E+00
E14 2019 01 14 00 50 00 6.460288888775E-03-5.584865903074E-12 0.000000000000E+00
     2.100000000000E+01 1.059375000000E+01 6.934217409417E-09-5.733032162430E-01
     9.909272193909E-07 1.662453128956E-01 9.734183549881E-06 5.289323001862E+03
     8.940000000000E+04-2.097338438034E-06-1.587161376922E+00 9.350478649139E-07
     8.826324954720E-01 1.777500000000E+02 1.457754067685E+00-1.182620689470E-08
     4.168030758068E-10 2.580000000000E+02 2.036000000000E+03 0.000000000000E+00
     3.120000000000E+00 5.600000000000E+01 3.329478204250E-08 0.000000000000E+00
     9.010000000000E+04 0.000000000000E+00 0.000000000000E+00 0.000000000000E+00
E15 2019 01 14 00 50 00 9.230346768163E-04-1.023181539495E-12 0.000000000000E+00
     2.100000000000E+01 1.190625000000E+01 2.784044538058E-09-2.958644230859E+00
     5.420297384262E-07 3.903142642230E-04 6.893649697304E-06 5.440599462509E+03
     8.940000000000E+04-3.911554813385E-08-9.903263319354E-01 2.980232238770E-08
     9.851619121994E-01 2.038437500000E+02-1.589955851815E+00-5.532373302697E-09
     1.864363372504E-10 2.580000000000E+02 2.036000000000E+03 0.000000000000E+00
     3.120000000000E+00 5.600000000000E+01 1.396983861923E-09 0.000000000000E+00
     9.010000000000E+04 0.000000000000E+00 0.000000000000E+00 0.000000000000E+00
E18 2019 01 14 00 50 00 5.608196253888E-03-2.849276370398E-11 0.000000000000E+00
     2.100000000000E+01-5.584375000000E+01 4.534474593353E-09 2.537808689210E+00
    -2.427026629448E-06 1.662923726253E-01 5.906447768211E-06 5.289388553619E+03
     8.940000000000E+04 2.579763531685E-06-1.570032708427E+00-7.525086402893E-07
     8.818473868376E-01 1.655625000000E+02 1.442391719165E+00-5.681308077857E-09
    -2.857261873569E-12 2.580000000000E+02 2.036000000000E+03 0.000000000000E+00
     3.120000000000E+00 5.600000000000E+01 1.396983861923E-08 0.000000000000E+00
     9.010000000000E+04 0.000000000000E+00 0.000000000000E+00 0.000000000000E+00
E19 2019 01 14 00 50 00-9.141105692834E-06 2.557953848736E-13 0.000000000000E+00
     2.100000000000E+01-3.340625000000E+01 3.056913046984E-09 1.248180026817E+00
    -1.536682248116E-06 1.367435324937E-04 1.102499663830E-05 5.440621284485E+03
     8.940000000000E+04 3.539025783539E-08 1.117050513363E+00 2.980232238770E-08
     9.582203856796E-01 1.013750000000E+02 2.393436098141E+00-5.534159091368E-09
    -1.235765760318E-10 2.580000000000E+02 2.036000000000E+03 0.000000000000E+00
     3.120000000000E+00 0.000000000000E+00-8.614733815193E-09 0.000000000000E+00
     9.010000000000E+04 0.000000000000E+00 0.000000000000E+00 0.000000000000E+00
E21 2019 01 14 00 50 00-5.143076414242E-04-1.833200258261E-12 0.000000000000E+00
     2.100000000000E+01 2.403125000000E+01 2.988338762019E-09 1.811830887629E+00
     1.212581992149E-06 4.870793782175E-05 5.068257451057E-06 5.440624631882E+03
     8.940000000000E+04-5.401670932770E-08-3.072923511553E+00-5.774199962616E-08
     9.896680524468E-01 2.458125000000E+02 4.622309182302E-01-5.605947795942E-09
    -1.060758470562E-10 2.580000000000E+02 2.036000000000E+03 0.000000000000E+00
     3.120000000000E+00 0.000000000000E+00-2.561137080193E-09 0.000000000000E+00
     9.010000000000E+04 0.000000000000E+00 0.000000000000E+00 0.000000000000E+00
E24 2019 01 14 00 50 00 6.287298572715E-03-1.973887719942E-11 0.000000000000E+00
     2.100000000000E+01 3.859375000000E+01 3.095486082277E-09-6.256157155429E-01
     1.814216375351E-06 4.783716285601E-04 4.692003130913E-06 5.440610967636E+03
     8.940000000000E+04-2.607703208923E-08-3.066855476578E+00 2.421438694000E-08
     9.876723864165E-01 2.554062500000E+02 5.229376824306E-01-5.693094283086E-09
    -8.571785620706E-11 2.580000000000E+02 2.036000000000E+03 0.000000000000E+00
     3.120000000000E+00 0.000000000000E+00 4.284083843231E-08 0.000000000000E+00
     9.010000000000E+04 0.000000000000E+00 0.000000000000E+00 0.000000000000E+00
E30 2019 01 14 00 50 00 5.190542258788E-03-3.048228336411E-11 0.000000000000E+00
     2.100000000000E+01 3.075000000000E+01 3.002982229121E-09-3.061449531993E+00
     1.301988959312E-06 3.140636254102E-04 5.155801773071E-06 5.440614599228E+03
     8.940000000000E+04 1.303851604462E-08-3.066911412713E+00-7.264316082001E-08
     9.876566015304E-01 2.441562500000E+02 6.050832360541E-01-5.654878405527E-09
    -1.382200431339E-10 2.580000000000E+02 2.036000000000E+03 0.000000000000E+00
     3.120000000000E+00 0.000000000000E+00-3.026798367500E-09 0.000000000000E+00
     9.010000000000E+04 0.000000000000E+00 0.000000000000E+00 0.000000000000E+00
E36 2019 01 14 00 50 00 7.599570089951E-04-4.519051799434E-12 0.000000000000E+00
     2.100000000000E+01-5.187500000000E+00 2.816903049605E-09-1.459656282509E+00
    -2.626329660416E-07 3.332544583827E-04 7.361173629761E-06 5.440597652435E+03
     8.940000000000E+04-7.450580596924E-09-9.903236708874E-01-5.215406417847E-08
     9.852080365435E-01 1.916875000000E+02-1.516107276114E+00-5.513086785051E-09
     1.532206679701E-10 2.580000000000E+02 2.036000000000E+03 0.000000000000E+00
     3.120000000000E+00 5.600000000000E+01 9.313225746155E-10 0.000000000000E+00
     9.010000000000E+04 0.000000000000E+00 0.000000000000E+00 0.000000000000E+00
E01 2019 01 14 00 40 00-5.202302127145E-04-8.071765478235E-12 0.000000000000E+00
     2.000000000000E+01 3.375000000000E+01 3.017625696223E-09 1.984496551344E+00
     1.557171344757E-06 8.804711978883E-05 4.887580871582E-06 5.440613471985E+03
     8.880000000000E+04-3.725290298462E-09-3.070310590646E+00 2.235174179077E-08
     9.901048753965E-01 2.485000000000E+02-5.861468177448E-01-5.667378926223E-09
    -1.257195224370E-10 5.210000000000E+02 2.036000000000E+03 0.000000000000E+00
     3.120000000000E+00 0.000000000000E+00-4.656612873077E-09-5.355104804039E-09
     9.011500000000E+04 0.000000000000E+00 0.000000000000E+00 0.000000000000E+00
E15 2019 01 14 00 50 00 9.230347350240E-04-1.023181539495E-12 0.000000000000E+00
     2.100000000000E+01 1.190625000000E+01 2.784044538058E-09-2.958644230859E+00
     5.420297384262E-07 3.903142642230E-04 6.893649697304E-06 5.440599462509E+03
     8.940000000000E+04-3.911554813385E-08-9.903263319354E-01 2.980232238770E-08
     9.851619121994E-01 2.038437500000E+02-1.589955851815E+00-5.532373302697E-09
     1.864363372504E-10 5.210000000000E+02 2.036000000000E+03 0.000000000000E+00
     3.120000000000E+00 4.550000000000E+02 1.396983861923E-09 1.396983861923E-09
     9.011500000000E+04 0.000000000000E+00 0.000000000000E+00 0.000000000000E+00
E26 2019 01 13 23 00 00 5.022917990573E-03-4.334310688137E-11 0.000000000000E+00
     1.000000000000E+01 1.559375000000E+01 2.896549224330E-09 1.340289468665E+00
     6.016343832016E-07 3.170485142618E-04 7.940456271172E-06 5.440606546402E+03
     8.280000000000E+04 5.215406417847E-08-9.813760235762E-01 2.421438694000E-08
     9.783187573946E-01 1.788437500000E+02-1.988303166591E+00-5.607376426879E-09
     2.167947446570E-10 2.580000000000E+02 2.036000000000E+03 0.000000000000E+00
     3.120000000000E+00 0.000000000000E+00 1.164153218269E-09 0.000000000000E+00
     9.025000000000E+04 0.000000000000E+00 0.000000000000E+00 0.000000000000E+00
E31 2019 01 14 00 30 00 9.332945337519E-04-9.706013770483E-12 0.000000000000E+00
     1.900000000000E+01 3.737500000000E+01 3.046555472693E-09 2.102197199511E+00
     1.687556505203E-06 2.184286713600E-04 4.813075065613E-06 5.440620618820E+03
     8.820000000000E+04-2.048909664154E-08-3.072948416270E+00 1.862645149231E-09
     9.896436319553E-01 2.530625000000E+02-1.546190123699E+00-5.665235979818E-09
    -1.089331089298E-10 2.580000000000E+02 2.036000000000E+03 0.000000000000E+00
     3.120000000000E+00 0.000000000000E+00-2.328306436539E-10 0.000000000000E+00
     9.025000000000E+04 0.000000000000E+00 0.000000000000E+00 0.000000000000E+00
